NORAD_CAT_ID,OBJECT_NAME,OBJECT_TYPE,EPOCH,MEAN_MOTION,ECCENTRICITY,INCLINATION,RA_OF_ASC_NODE,ARG_OF_PERICENTER,MEAN_ANOMALY,BSTAR,MEAN_MOTION_DOT,MEAN_MOTION_DDOT,TLE_LINE0,TLE_LINE1,TLE_LINE2,SEMIMAJOR_AXIS,PERIOD,APOGEE,PERIGEE,DECAYED
54774.0,STARLINK-5454,PAYLOAD,2023-02-21 08:00:01,15.38901887,0.0001373,53.2146,344.415,78.6667,33.6366,-0.025727,-0.0092205,0.0,0 STARLINK-5454,1 54774U 22175S   23052.33334491 -.00922050  00000-0 -25727-1 0  9990,2 54774  53.2146 344.4150 0001373  78.6667  33.6366 15.38901887 10014,6827.492,93.573,450.295,448.42,0.0
54774.0,STARLINK-5454,PAYLOAD,2023-02-21 14:00:01,15.38386022,0.0001209,53.2148,343.2389,91.0024,326.8707,-0.025089,-0.00886995,0.0,0 STARLINK-5454,1 54774U 22175S   23052.58334491 -.00886995  00000-0 -25089-1 0  9995,2 54774  53.2148 343.2389 0001209  91.0024 326.8707 15.38386022  1307,6829.019,93.605,451.709,450.058,0.0
54774.0,STARLINK-5454,PAYLOAD,2023-02-22 00:00:00,15.37595583,0.0001404,53.2146,341.2841,92.2127,113.9332,-0.027133,-0.00930853,0.0,0 STARLINK-5454,1 54774U 22175S   23053.00001157 -.00930853  00000-0 -27133-1 0  9998,2 54774  53.2146 341.2841 0001404  92.2127 113.9332 15.37595583  1302,6831.359,93.653,454.183,452.265,0.0
54774.0,STARLINK-5454,PAYLOAD,2023-02-22 06:00:00,15.37081703,0.0001383,53.2143,340.1125,84.1704,66.3598,-0.025706,-0.00872141,0.0,0 STARLINK-5454,1 54774U 22175S   23053.25001157 -.00872141  00000-0 -25706-1 0  9994,2 54774  53.2143 340.1125 0001383  84.1704  66.3598 15.37081703 10151,6832.881,93.684,455.691,453.801,0.0
54774.0,STARLINK-5454,PAYLOAD,2023-02-22 14:00:01,15.36429004,0.0001334,53.2143,338.5488,97.2661,98.4275,-0.026516,-0.0088007,0.0,0 STARLINK-5454,1 54774U 22175S   23053.58334491 -.00880070  00000-0 -26516-1 0  9990,2 54774  53.2143 338.5488 0001334  97.2661  98.4275 15.36429004  1301,6834.816,93.724,457.593,455.769,0.0
54774.0,STARLINK-5454,PAYLOAD,2023-02-22 22:00:00,15.35817257,0.0001368,53.2145,336.9892,99.9094,140.1454,-0.029212,-0.00944652,0.0,0 STARLINK-5454,1 54774U 22175S   23053.91667824 -.00944652  00000-0 -29212-1 0  9999,2 54774  53.2145 336.9892 0001368  99.9094 140.1454 15.35817257 10269,6836.631,93.761,459.431,457.561,0.0
54774.0,STARLINK-5454,PAYLOAD,2023-02-23 14:00:01,15.34471242,0.0001207,53.2144,333.8725,104.179,222.2949,-0.027954,-0.00871775,0.0,0 STARLINK-5454,1 54774U 22175S   23054.58334491 -.00871775  00000-0 -27954-1 0  9990,2 54774  53.2144 333.8725 0001207 104.1790 222.2949 15.34471242  1308,6840.629,93.843,463.319,461.668,0.0
54774.0,STARLINK-5454,PAYLOAD,2023-02-23 16:00:00,15.34315812,0.000118,53.2143,333.4832,98.9228,328.1266,-0.028299,-0.00877654,0.0,0 STARLINK-5454,1 54774U 22175S   23054.66667824 -.00877654  00000-0 -28299-1 0  9993,2 54774  53.2143 333.4832 0001180  98.9228 328.1266 15.34315812 10373,6841.09,93.853,463.763,462.148,0.0
54774.0,STARLINK-5454,PAYLOAD,2023-02-23 22:00:00,15.33868114,0.0001204,53.2145,332.3176,99.0298,269.4559,-0.031404,-0.00953126,0.0,0 STARLINK-5454,1 54774U 22175S   23054.91667824 -.00953126  00000-0 -31404-1 0  9992,2 54774  53.2145 332.3176 0001204  99.0298 269.4559 15.33868114  1302,6842.422,93.88,465.11,463.463,0.0
54774.0,STARLINK-5454,PAYLOAD,2023-02-24 10:00:00,15.32894907,0.0001252,53.2145,329.987,96.5915,153.4684,-0.032564,-0.00970247,0.0,0 STARLINK-5454,1 54774U 22175S   23055.41667824 -.00970247  00000-0 -32564-1 0  9999,2 54774  53.2145 329.9870 0001252  96.5915 153.4684 15.32894907 10495,6845.317,93.94,468.039,466.325,0.0
54774.0,STARLINK-5454,PAYLOAD,2023-02-24 14:00:01,15.32516665,0.0001185,53.2146,329.21,97.1163,353.0953,-0.029573,-0.00867072,0.0,0 STARLINK-5454,1 54774U 22175S   23055.58334491 -.00867072  00000-0 -29573-1 0  9995,2 54774  53.2146 329.2100 0001185  97.1163 353.0953 15.32516665  1301,6846.444,93.963,469.12,467.497,0.0
54774.0,STARLINK-5454,PAYLOAD,2023-02-24 22:00:00,15.31911228,0.0001322,53.2148,327.6597,93.6454,36.2338,-0.033283,-0.0096201,0.0,0 STARLINK-5454,1 54774U 22175S   23055.91667824 -.00962010  00000-0 -33283-1 0  9992,2 54774  53.2148 327.6597 0001322  93.6454  36.2338 15.31911228  1302,6848.247,94.0,471.018,469.207,0.0
54774.0,STARLINK-5454,PAYLOAD,2023-02-25 02:00:01,15.31545238,0.0001222,53.2148,326.8857,92.9743,236.4619,-0.030856,-0.0087661,0.0,0 STARLINK-5454,1 54774U 22175S   23056.08334491 -.00876610  00000-0 -30856-1 0  9995,2 54774  53.2148 326.8857 0001222  92.9743 236.4619 15.31545238 10595,6849.338,94.023,472.04,470.366,0.0
54774.0,STARLINK-5454,PAYLOAD,2023-02-25 14:00:01,15.30565827,0.0001283,53.2149,324.5612,99.8241,107.0834,-0.031479,-0.00868031,0.0,0 STARLINK-5454,1 54774U 22175S   23056.58334491 -.00868031  00000-0 -31479-1 0  9990,2 54774  53.2149 324.5612 0001283  99.8241 107.0834 15.30565827 10672,6852.26,94.083,475.004,473.246,0.0
54774.0,STARLINK-5454,PAYLOAD,2023-02-25 22:00:00,15.29951177,0.0001296,53.2151,323.0157,97.4411,146.791,-0.034929,-0.00950449,0.0,0 STARLINK-5454,1 54774U 22175S   23056.91667824 -.00950449  00000-0 -34929-1 0  9994,2 54774  53.2151 323.0157 0001296  97.4411 146.7910 15.29951177  1300,6854.095,94.121,476.848,475.072,0.0
54774.0,STARLINK-5454,PAYLOAD,2023-02-26 06:00:00,15.2930188,0.000115,53.2149,321.4715,90.8017,189.9755,-0.035048,-0.0093578,0.0,0 STARLINK-5454,1 54774U 22175S   23057.25001157 -.00935780  00000-0 -35048-1 0  9997,2 54774  53.2149 321.4715 0001150  90.8017 189.9755 15.29301880 10774,6856.035,94.161,478.688,477.112,0.0
54774.0,STARLINK-5454,PAYLOAD,2023-02-26 14:00:01,15.28612178,0.0001129,53.2152,319.9262,102.0324,214.5316,-0.033345,-0.00865579,0.0,0 STARLINK-5454,1 54774U 22175S   23057.58334491 -.00865579  00000-0 -33345-1 0  9999,2 54774  53.2152 319.9262 0001129 102.0324 214.5316 15.28612178  1301,6858.097,94.203,480.736,479.188,0.0
54774.0,STARLINK-5454,PAYLOAD,2023-02-27 00:00:00,15.27813354,0.0001229,53.2154,318.0007,84.3377,5.835,-0.035735,-0.00901891,0.0,0 STARLINK-5454,1 54774U 22175S   23058.00001157 -.00901891  00000-0 -35735-1 0  9990,2 54774  53.2154 318.0007 0001229  84.3377   5.8350 15.27813354  1308,6860.487,94.252,483.196,481.509,0.0
54774.0,STARLINK-5454,PAYLOAD,2023-02-27 08:00:01,15.27202652,0.0001202,53.2154,316.4603,82.8908,41.2765,-0.038946,-0.00971911,0.0,0 STARLINK-5454,1 54774U 22175S   23058.33334491 -.00971911  00000-0 -38946-1 0  9993,2 54774  53.2154 316.4603 0001202  82.8908  41.2765 15.27202652 10932,6862.316,94.29,485.006,483.356,0.0
54774.0,STARLINK-5454,PAYLOAD,2023-02-27 14:00:01,15.26661963,0.0001101,53.2155,315.305,92.3856,326.7934,-0.035559,-0.00869162,0.0,0 STARLINK-5454,1 54774U 22175S   23058.58334491 -.00869162  00000-0 -35559-1 0  9991,2 54774  53.2155 315.3050 0001101  92.3856 326.7934 15.26661963  1306,6863.936,94.323,486.557,485.046,0.0
54774.0,STARLINK-5454,PAYLOAD,2023-02-27 22:00:01,15.2604268,0.0001172,53.2156,313.7691,85.0159,6.8597,-0.039219,-0.00946726,0.0,0 STARLINK-5454,1 54774U 22175S   23058.91668981 -.00946726  00000-0 -39219-1 0  9991,2 54774  53.2156 313.7691 0001172  85.0159   6.8597 15.26042680 11023,6865.793,94.362,488.463,486.854,0.0
54774.0,STARLINK-5454,PAYLOAD,2023-02-28 14:00:01,15.24717473,0.0001281,53.2155,310.6979,89.948,64.8022,-0.038279,-0.00891847,0.0,0 STARLINK-5454,1 54774U 22175S   23059.58334491 -.00891847  00000-0 -38279-1 0  9999,2 54774  53.2155 310.6979 0001281  89.9480  64.8022 15.24717473  1302,6869.771,94.444,492.516,490.756,0.0
54774.0,STARLINK-5454,PAYLOAD,2023-02-28 18:00:00,15.24429608,0.0001157,53.216,309.9318,95.2797,254.7036,-0.041505,-0.00953701,0.0,0 STARLINK-5454,1 54774U 22175S   23059.75001157 -.00953701  00000-0 -41505-1 0  9992,2 54774  53.2160 309.9318 0001157  95.2797 254.7036 15.24429608 11158,6870.636,94.462,493.296,491.706,0.0
54774.0,STARLINK-5454,PAYLOAD,2023-02-28 22:00:00,15.24081346,0.0001296,53.2157,309.1667,84.8591,100.1849,-0.041001,-0.0093389,0.0,0 STARLINK-5454,1 54774U 22175S   23059.91667824 -.00933890  00000-0 -41001-1 0  9997,2 54774  53.2157 309.1667 0001296  84.8591 100.1849 15.24081346  1308,6871.682,94.483,494.438,492.657,0.0
54774.0,STARLINK-5454,PAYLOAD,2023-03-01 14:00:01,15.22765998,0.0001282,53.2157,306.1044,93.4887,149.7962,-0.040657,-0.00893395,0.0,0 STARLINK-5454,1 54774U 22175S   23060.58334491 -.00893395  00000-0 -40657-1 0  9994,2 54774  53.2157 306.1044 0001282  93.4887 149.7962 15.22765998 11286,6875.639,94.565,498.385,496.622,0.0
54774.0,STARLINK-5454,PAYLOAD,2023-03-02 00:00:00,15.2194412,0.0001197,53.2158,304.1966,78.1503,289.9502,-0.041482,-0.00889809,0.0,0 STARLINK-5454,1 54774U 22175S   23061.00001157 -.00889809  00000-0 -41482-1 0  9994,2 54774  53.2158 304.1966 0001197  78.1503 289.9502 15.21944120  1302,6878.114,94.616,500.802,499.156,0.0
54774.0,STARLINK-5454,PAYLOAD,2023-03-02 20:00:01,15.20348656,0.0001322,53.2157,300.3834,86.5242,167.5267,-0.046629,-0.00949487,0.0,0 STARLINK-5454,1 54774U 22175S   23061.83334491 -.00949487  00000-0 -46629-1 0  9992,2 54774  53.2157 300.3834 0001322  86.5242 167.5267 15.20348656  1306,6882.925,94.715,505.7,503.88,0.0
54774.0,STARLINK-5454,PAYLOAD,2023-03-03 14:00:01,15.18864167,0.0001169,53.2155,296.9591,82.6952,316.5363,-0.045875,-0.00898333,0.0,0 STARLINK-5454,1 54774U 22175S   23062.58334491 -.00898333  00000-0 -45875-1 0  9990,2 54774  53.2155 296.9591 0001169  82.6952 316.5363 15.18864167 11589,6887.409,94.808,510.079,508.469,0.0
54774.0,STARLINK-5454,PAYLOAD,2023-03-03 22:00:00,15.18212896,0.0001276,53.2156,295.442,73.2718,349.2181,-0.047704,-0.00915342,0.0,0 STARLINK-5454,1 54774U 22175S   23062.91667824 -.00915342  00000-0 -47704-1 0  9999,2 54774  53.2156 295.4420 0001276  73.2718 349.2181 15.18212896  1306,6889.379,94.848,512.123,510.365,0.0
54774.0,STARLINK-5454,PAYLOAD,2023-03-04 10:00:01,15.17222015,0.0001221,53.2158,293.1651,83.3999,192.5714,-0.047384,-0.00885745,0.0,0 STARLINK-5454,1 54774U 22175S   23063.41668981 -.00885745  00000-0 -47384-1 0  9997,2 54774  53.2158 293.1651 0001221  83.3999 192.5714 15.17222015 11712,6892.378,94.91,515.085,513.401,0.0
